{"fetched_at":"2026-03-29T16:36:15Z","count":15609,"tles":[{"name":"STARLINK-34060","line1":"1 63815U 25092M   26087.62447038  .00022437  00000+0  82203-3 0  9993","line2":"2 63815  42.9978  65.3413 0000906 254.3553 105.7198 15.27593835 51452","category":"Starlink"}]}