{
  "norad_id": 63815,
  "name": "STARLINK-34060",
  "history": [
    {
      "epoch": "2026-03-28T14:59:14.240832Z",
      "apogee_km": 483.629289092245,
      "perigee_km": 482.3860496781508,
      "latitude_deg": -4.288982775977556e-05,
      "longitude_deg": 14.489675544968607,
      "height_km": 482.95128290553714,
      "semi_major_axis_km": 6861.144669385198,
      "eccentricity": 9.06e-05,
      "inclination_deg": 42.9978,
      "raan_deg": 65.3413,
      "arg_perigee_deg": 254.3553,
      "mean_anomaly_deg": 105.7198,
      "mean_motion_rev_day": 15.27593835
    }
  ]
}